1 08820U 76039A   03160.59633891  .00000024  00000-0  10000-3 0  9492
2 08820 109.8043 179.0033 0044573 303.0410  56.6028  6.38664424376570
